{"type": "FeatureCollection", "features": [ {"type": "Feature", "properties": {"norad_id": 38552, "name": "METEOSAT-10 (MSG-3)", "group": "weather", "lat": 1.8800067169416517, "lon": 87.5867128547416, "alt_km": 35790.427922712595, "timestamp": "2025-12-26T23:26:41.799922+00:00", "meta": {"OBJECT_NAME": "METEOSAT-10 (MSG-3)", "OBJECT_ID": "2012-035B", "EPOCH": "2025-12-25T19:55:02.807904", "MEAN_MOTION": 1.00266624, "ECCENTRICITY": 0.0001479, "INCLINATION": 4.2575, "RA_OF_ASC_NODE": 61.6862, "ARG_OF_PERICENTER": 265.3349, "MEAN_ANOMALY": 66.5982, "EPHEMERIS_TYPE": 0, "CLASSIFICATION_TYPE": "U", "NORAD_CAT_ID": 38552, "ELEMENT_SET_NO": 999, "REV_AT_EPOCH": 4911, "BSTAR": 0, "MEAN_MOTION_DOT": 1.4e-07, "MEAN_MOTION_DDOT": 0}, "tle": {"line1": "1 38552U 12035B   25359.82989361  .00000014  00000+0  00000+0 0  9997", "line2": "2 38552   4.2575  61.6862 0001479 265.3349  66.5982  1.00266624 49118"}}, "geometry": {"type": "Point", "coordinates": [87.5867128547416, 1.8800067169416517]}}, {"type": "Feature", "properties": {"norad_id": 38771, "name": "METOP-B", "group": "weather", "lat": 0.631762899243028, "lon": -129.21056642884852, "alt_km": 822.3938123945036, "timestamp": "2025-12-26T23:26:41.799931+00:00", "meta": {"OBJECT_NAME": "METOP-B", "OBJECT_ID": "2012-049A", "EPOCH": "2025-12-26T17:32:11.113152", "MEAN_MOTION": 14.21413593, "ECCENTRICITY": 0.0003305, "INCLINATION": 98.678, "RA_OF_ASC_NODE": 50.451, "ARG_OF_PERICENTER": 115.2256, "MEAN_ANOMALY": 244.9264, "EPHEMERIS_TYPE": 0, "CLASSIFICATION_TYPE": "U", "NORAD_CAT_ID": 38771, "ELEMENT_SET_NO": 999, "REV_AT_EPOCH": 68876, "BSTAR": 8.1383e-05, "MEAN_MOTION_DOT": 1.34e-06, "MEAN_MOTION_DDOT": 0}, "tle": {"line1": "1 38771U 12049A   25360.73068418  .00000134  00000+0  81383-4 0  9999", "line2": "2 38771  98.6780  50.4510 0003305 115.2256 244.9264 14.21413593688763"}}, "geometry": {"type": "Point", "coordinates": [-129.21056642884852, 0.631762899243028]}}, {"type": "Feature", "properties": {"norad_id": 39216, "name": "INSAT-3D", "group": "weather", "lat": 1.0900718489846761, "lon": -143.0626960400001, "alt_km": 35778.148678716214, "timestamp": "2025-12-26T23:26:41.799942+00:00", "meta": {"OBJECT_NAME": "INSAT-3D", "OBJECT_ID": "2013-038B", "EPOCH": "2025-12-26T14:40:38.546400", "MEAN_MOTION": 1.00273304, "ECCENTRICITY": 0.0001962, "INCLINATION": 1.4788, "RA_OF_ASC_NODE": 84.8393, "ARG_OF_PERICENTER": 158.3266, "MEAN_ANOMALY": 201.9018, "EPHEMERIS_TYPE": 0, "CLASSIFICATION_TYPE": "U", "NORAD_CAT_ID": 39216, "ELEMENT_SET_NO": 999, "REV_AT_EPOCH": 4535, "BSTAR": 0, "MEAN_MOTION_DOT": -3.17e-06, "MEAN_MOTION_DDOT": 0}, "tle": {"line1": "1 39216U 13038B   25360.61155725 -.00000317  00000+0  00000+0 0  9994", "line2": "2 39216   1.4788  84.8393 0001962 158.3266 201.9018  1.00273304 45353"}}, "geometry": {"type": "Point", "coordinates": [-143.0626960400001, 1.0900718489846761]}}, {"type": "Feature", "properties": {"norad_id": 39260, "name": "FENGYUN 3C", "group": "weather", "lat": 45.76273382939356, "lon": 166.7732533914728, "alt_km": 825.8058365257621, "timestamp": "2025-12-26T23:26:41.799952+00:00", "meta": {"OBJECT_NAME": "FENGYUN 3C", "OBJECT_ID": "2013-052A", "EPOCH": "2025-12-26T17:43:40.020096", "MEAN_MOTION": 14.15700498, "ECCENTRICITY": 0.0015068, "INCLINATION": 98.478, "RA_OF_ASC_NODE": 337.7355, "ARG_OF_PERICENTER": 155.7911, "MEAN_ANOMALY": 204.3975, "EPHEMERIS_TYPE": 0, "CLASSIFICATION_TYPE": "U", "NORAD_CAT_ID": 39260, "ELEMENT_SET_NO": 999, "REV_AT_EPOCH": 63416, "BSTAR": 7.616e-05, "MEAN_MOTION_DOT": 1.08e-06, "MEAN_MOTION_DDOT": 0}, "tle": {"line1": "1 39260U 13052A   25360.73865764  .00000108  00000+0  76160-4 0  9995", "line2": "2 39260  98.4780 337.7355 0015068 155.7911 204.3975 14.15700498634169"}}, "geometry": {"type": "Point", "coordinates": [166.7732533914728, 45.76273382939356]}}, {"type": "Feature", "properties": {"norad_id": 40069, "name": "METEOR-M 2", "group": "weather", "lat": 45.433627149479186, "lon": -30.708351535971286, "alt_km": 818.7218938597471, "timestamp": "2025-12-26T23:26:41.799961+00:00", "meta": {"OBJECT_NAME": "METEOR-M 2", "OBJECT_ID": "2014-037A", "EPOCH": "2025-12-26T18:09:37.249632", "MEAN_MOTION": 14.21391302, "ECCENTRICITY": 0.0005711, "INCLINATION": 98.4923, "RA_OF_ASC_NODE": 337.8046, "ARG_OF_PERICENTER": 166.3617, "MEAN_ANOMALY": 193.7716, "EPHEMERIS_TYPE": 0, "CLASSIFICATION_TYPE": "U", "NORAD_CAT_ID": 40069, "ELEMENT_SET_NO": 999, "REV_AT_EPOCH": 59482, "BSTAR": -2.3945e-06, "MEAN_MOTION_DOT": -4.7e-07, "MEAN_MOTION_DDOT": 0}, "tle": {"line1": "1 40069U 14037A   25360.75668113 -.00000047  00000+0 -23945-5 0  9997", "line2": "2 40069  98.4923 337.8046 0005711 166.3617 193.7716 14.21391302594829"}}, "geometry": {"type": "Point", "coordinates": [-30.708351535971286, 45.433627149479186]}}, {"type": "Feature", "properties": {"norad_id": 40267, "name": "HIMAWARI-8", "group": "weather", "lat": 0.000817555087460092, "lon": -131.96721521543387, "alt_km": 35785.50995823397, "timestamp": "2025-12-26T23:26:41.799972+00:00", "meta": {"OBJECT_NAME": "HIMAWARI-8", "OBJECT_ID": "2014-060A", "EPOCH": "2025-12-26T08:33:59.245344", "MEAN_MOTION": 1.0027063, "ECCENTRICITY": 0.000101, "INCLINATION": 0.0427, "RA_OF_ASC_NODE": 196.506, "ARG_OF_PERICENTER": 108.6661, "MEAN_ANOMALY": 59.0936, "EPHEMERIS_TYPE": 0, "CLASSIFICATION_TYPE": "U", "NORAD_CAT_ID": 40267, "ELEMENT_SET_NO": 999, "REV_AT_EPOCH": 4102, "BSTAR": 0, "MEAN_MOTION_DOT": -2.54e-06, "MEAN_MOTION_DDOT": 0}, "tle": {"line1": "1 40267U 14060A   25360.35693571 -.00000254  00000+0  00000+0 0  9995", "line2": "2 40267   0.0427 196.5060 0001010 108.6661  59.0936  1.00270630 41029"}}, "geometry": {"type": "Point", "coordinates": [-131.96721521543387, 0.000817555087460092]}}, {"type": "Feature", "properties": {"norad_id": 40367, "name": "FENGYUN 2G", "group": "weather", "lat": 4.834656115566556, "lon": -173.2489021329795, "alt_km": 35778.95817075339, "timestamp": "2025-12-26T23:26:41.799983+00:00", "meta": {"OBJECT_NAME": "FENGYUN 2G", "OBJECT_ID": "2014-090A", "EPOCH": "2025-12-26T18:55:59.156832", "MEAN_MOTION": 1.00281357, "ECCENTRICITY": 0.0001786, "INCLINATION": 5.2007, "RA_OF_ASC_NODE": 74.9235, "ARG_OF_PERICENTER": 170.9545, "MEAN_ANOMALY": 232.9419, "EPHEMERIS_TYPE": 0, "CLASSIFICATION_TYPE": "U", "NORAD_CAT_ID": 40367, "ELEMENT_SET_NO": 999, "REV_AT_EPOCH": 4027, "BSTAR": 0, "MEAN_MOTION_DOT": -2.81e-06, "MEAN_MOTION_DDOT": 0}, "tle": {"line1": "1 40367U 14090A   25360.78887913 -.00000281  00000+0  00000+0 0  9991", "line2": "2 40367   5.2007  74.9235 0001786 170.9545 232.9419  1.00281357 40279"}}, "geometry": {"type": "Point", "coordinates": [-173.2489021329795, 4.834656115566556]}}, {"type": "Feature", "properties": {"norad_id": 40732, "name": "METEOSAT-11 (MSG-4)", "group": "weather", "lat": 1.1718725082214947, "lon": 96.53278826373423, "alt_km": 35787.00722911445, "timestamp": "2025-12-26T23:26:41.799994+00:00", "meta": {"OBJECT_NAME": "METEOSAT-11 (MSG-4)", "OBJECT_ID": "2015-034A", "EPOCH": "2025-12-25T16:31:52.264704", "MEAN_MOTION": 1.00271545, "ECCENTRICITY": 6.999e-05, "INCLINATION": 2.7688, "RA_OF_ASC_NODE": 71.966, "ARG_OF_PERICENTER": 136.703, "MEAN_ANOMALY": 142.9271, "EPHEMERIS_TYPE": 0, "CLASSIFICATION_TYPE": "U", "NORAD_CAT_ID": 40732, "ELEMENT_SET_NO": 999, "REV_AT_EPOCH": 547, "BSTAR": 0, "MEAN_MOTION_DOT": 8.2e-07, "MEAN_MOTION_DDOT": 0}, "tle": {"line1": "1 40732U 15034A   25359.68879936  .00000082  00000+0  00000+0 0  9997", "line2": "2 40732   2.7688  71.9660 0000699 136.7030 142.9271  1.00271545  5479"}}, "geometry": {"type": "Point", "coordinates": [96.53278826373423, 1.1718725082214947]}}, {"type": "Feature", "properties": {"norad_id": 41105, "name": "ELEKTRO-L 2", "group": "weather", "lat": 0.04289844438643253, "lon": 72.93008406846383, "alt_km": 35799.72115935752, "timestamp": "2025-12-26T23:26:41.800004+00:00", "meta": {"OBJECT_NAME": "ELEKTRO-L 2", "OBJECT_ID": "2015-074A", "EPOCH": "2025-12-26T06:33:21.536352", "MEAN_MOTION": 1.00271736, "ECCENTRICITY": 0.0003634, "INCLINATION": 6.2575, "RA_OF_ASC_NODE": 72.6671, "ARG_OF_PERICENTER": 208.1053, "MEAN_ANOMALY": 258.1181, "EPHEMERIS_TYPE": 0, "CLASSIFICATION_TYPE": "U", "NORAD_CAT_ID": 41105, "ELEMENT_SET_NO": 999, "REV_AT_EPOCH": 3677, "BSTAR": 0, "MEAN_MOTION_DOT": -9.7e-07, "MEAN_MOTION_DDOT": 0}, "tle": {"line1": "1 41105U 15074A   25360.27316593 -.00000097  00000+0  00000+0 0  9995", "line2": "2 41105   6.2575  72.6671 0003634 208.1053 258.1181  1.00271736 36778"}}, "geometry": {"type": "Point", "coordinates": [72.93008406846383, 0.04289844438643253]}}, {"type": "Feature", "properties": {"norad_id": 41752, "name": "INSAT-3DR", "group": "weather", "lat": 0.046212357859730505, "lon": 161.21676658833042, "alt_km": 35807.82836305579, "timestamp": "2025-12-26T23:26:41.800015+00:00", "meta": {"OBJECT_NAME": "INSAT-3DR", "OBJECT_ID": "2016-054A", "EPOCH": "2025-12-26T03:06:52.542720", "MEAN_MOTION": 1.00271485, "ECCENTRICITY": 0.0014374, "INCLINATION": 0.0398, "RA_OF_ASC_NODE": 84.8108, "ARG_OF_PERICENTER": 187.3091, "MEAN_ANOMALY": 303.4691, "EPHEMERIS_TYPE": 0, "CLASSIFICATION_TYPE": "U", "NORAD_CAT_ID": 41752, "ELEMENT_SET_NO": 999, "REV_AT_EPOCH": 3408, "BSTAR": 0, "MEAN_MOTION_DOT": -5.5e-07, "MEAN_MOTION_DDOT": 0}, "tle": {"line1": "1 41752U 16054A   25360.12977480 -.00000055  00000+0  00000+0 0  9998", "line2": "2 41752   0.0398  84.8108 0014374 187.3091 303.4691  1.00271485 34087"}}, "geometry": {"type": "Point", "coordinates": [161.21676658833042, 0.046212357859730505]}}]}